STARLINK-36091          
1 66848U 25281A   26068.17965327  .00027179  00000+0  99325-3 0  9998
2 66848  43.0012 346.6908 0002124 234.1897 125.8758 15.27588939 14786
KUIPER-00226            
1 67785U 26030X   26068.62629313  .00046834  00000+0  15530-2 0  9998
2 67785  51.8814 220.1252 0017713  64.2781 296.0030 15.30655594  5078
