[{"OBJECT_NAME":"STARLINK-36091","OBJECT_ID":"2025-281A","EPOCH":"2026-03-09T04:18:42.042528","MEAN_MOTION":15.27588939,"ECCENTRICITY":0.00021245,"INCLINATION":43.0012,"RA_OF_ASC_NODE":346.6908,"ARG_OF_PERICENTER":234.1897,"MEAN_ANOMALY":125.8758,"EPHEMERIS_TYPE":0,"CLASSIFICATION_TYPE":"U","NORAD_CAT_ID":66848,"ELEMENT_SET_NO":999,"REV_AT_EPOCH":1478,"BSTAR":0.00099324701,"MEAN_MOTION_DOT":0.00027179,"MEAN_MOTION_DDOT":0},{"OBJECT_NAME":"KUIPER-00226","OBJECT_ID":"2026-030X","EPOCH":"2026-03-09T15:01:51.726432","MEAN_MOTION":15.30655594,"ECCENTRICITY":0.0017713,"INCLINATION":51.8814,"RA_OF_ASC_NODE":220.1252,"ARG_OF_PERICENTER":64.2781,"MEAN_ANOMALY":296.003,"EPHEMERIS_TYPE":0,"CLASSIFICATION_TYPE":"U","NORAD_CAT_ID":67785,"ELEMENT_SET_NO":999,"REV_AT_EPOCH":507,"BSTAR":0.001553,"MEAN_MOTION_DOT":0.00046834,"MEAN_MOTION_DDOT":0}]
